<?xml version="1.0" encoding="UTF-8"?>
<ndm xmlns:xsi="http://www.w3.org/2001/XMLSchema-instance" xsi:noNamespaceSchemaLocation="https://sanaregistry.org/r/ndmxml_unqualified/ndmxml-2.0.0-master-2.0.xsd">
<omm id="CCSDS_OMM_VERS" version="2.0">
<header><CREATION_DATE/><ORIGINATOR/></header><body><segment><metadata><OBJECT_NAME>ONEWEB-0047</OBJECT_NAME><OBJECT_ID>2020-008X</OBJECT_ID><CENTER_NAME>EARTH</CENTER_NAME><REF_FRAME>TEME</REF_FRAME><TIME_SYSTEM>UTC</TIME_SYSTEM><MEAN_ELEMENT_THEORY>SGP4</MEAN_ELEMENT_THEORY></metadata><data><meanElements><EPOCH>2024-01-28T21:38:17.152224</EPOCH><MEAN_MOTION>13.10370060</MEAN_MOTION><ECCENTRICITY>.0001426</ECCENTRICITY><INCLINATION>87.8898</INCLINATION><RA_OF_ASC_NODE>209.1404</RA_OF_ASC_NODE><ARG_OF_PERICENTER>97.8416</ARG_OF_PERICENTER><MEAN_ANOMALY>262.2873</MEAN_ANOMALY></meanElements><tleParameters><EPHEMERIS_TYPE>0</EPHEMERIS_TYPE><CLASSIFICATION_TYPE>U</CLASSIFICATION_TYPE><NORAD_CAT_ID>45152</NORAD_CAT_ID><ELEMENT_SET_NO>999</ELEMENT_SET_NO><REV_AT_EPOCH>19422</REV_AT_EPOCH><BSTAR>-.15917E-2</BSTAR><MEAN_MOTION_DOT>-.543E-5</MEAN_MOTION_DOT><MEAN_MOTION_DDOT>0</MEAN_MOTION_DDOT></tleParameters></data></segment></body></omm>
<omm id="CCSDS_OMM_VERS" version="2.0">
<header><CREATION_DATE/><ORIGINATOR/></header><body><segment><metadata><OBJECT_NAME>ONEWEB-0048</OBJECT_NAME><OBJECT_ID>2020-008Y</OBJECT_ID><CENTER_NAME>EARTH</CENTER_NAME><REF_FRAME>TEME</REF_FRAME><TIME_SYSTEM>UTC</TIME_SYSTEM><MEAN_ELEMENT_THEORY>SGP4</MEAN_ELEMENT_THEORY></metadata><data><meanElements><EPOCH>2024-01-29T12:10:55.121952</EPOCH><MEAN_MOTION>13.10372554</MEAN_MOTION><ECCENTRICITY>.0001436</ECCENTRICITY><INCLINATION>87.8901</INCLINATION><RA_OF_ASC_NODE>209.0333</RA_OF_ASC_NODE><ARG_OF_PERICENTER>92.9666</ARG_OF_PERICENTER><MEAN_ANOMALY>267.1625</MEAN_ANOMALY></meanElements><tleParameters><EPHEMERIS_TYPE>0</EPHEMERIS_TYPE><CLASSIFICATION_TYPE>U</CLASSIFICATION_TYPE><NORAD_CAT_ID>45153</NORAD_CAT_ID><ELEMENT_SET_NO>999</ELEMENT_SET_NO><REV_AT_EPOCH>19468</REV_AT_EPOCH><BSTAR>-.57983E-3</BSTAR><MEAN_MOTION_DOT>-.19E-5</MEAN_MOTION_DOT><MEAN_MOTION_DDOT>0</MEAN_MOTION_DDOT></tleParameters></data></segment></body></omm>
<omm id="CCSDS_OMM_VERS" version="2.0">
<header><CREATION_DATE/><ORIGINATOR/></header><body><segment><metadata><OBJECT_NAME>ONEWEB-0049</OBJECT_NAME><OBJECT_ID>2020-008Z</OBJECT_ID><CENTER_NAME>EARTH</CENTER_NAME><REF_FRAME>TEME</REF_FRAME><TIME_SYSTEM>UTC</TIME_SYSTEM><MEAN_ELEMENT_THEORY>SGP4</MEAN_ELEMENT_THEORY></metadata><data><meanElements><EPOCH>2024-01-28T23:23:34.365120</EPOCH><MEAN_MOTION>13.10370419</MEAN_MOTION><ECCENTRICITY>.0000954</ECCENTRICITY><INCLINATION>87.8906</INCLINATION><RA_OF_ASC_NODE>209.1130</RA_OF_ASC_NODE><ARG_OF_PERICENTER>102.9582</ARG_OF_PERICENTER><MEAN_ANOMALY>257.1652</MEAN_ANOMALY></meanElements><tleParameters><EPHEMERIS_TYPE>0</EPHEMERIS_TYPE><CLASSIFICATION_TYPE>U</CLASSIFICATION_TYPE><NORAD_CAT_ID>45154</NORAD_CAT_ID><ELEMENT_SET_NO>999</ELEMENT_SET_NO><REV_AT_EPOCH>19484</REV_AT_EPOCH><BSTAR>-.12401E-2</BSTAR><MEAN_MOTION_DOT>-.42E-5</MEAN_MOTION_DOT><MEAN_MOTION_DDOT>0</MEAN_MOTION_DDOT></tleParameters></data></segment></body></omm>
<omm id="CCSDS_OMM_VERS" version="2.0">
<header><CREATION_DATE/><ORIGINATOR/></header><body><segment><metadata><OBJECT_NAME>ONEWEB-0051</OBJECT_NAME><OBJECT_ID>2020-008AA</OBJECT_ID><CENTER_NAME>EARTH</CENTER_NAME><REF_FRAME>TEME</REF_FRAME><TIME_SYSTEM>UTC</TIME_SYSTEM><MEAN_ELEMENT_THEORY>SGP4</MEAN_ELEMENT_THEORY></metadata><data><meanElements><EPOCH>2024-01-29T10:53:48.060672</EPOCH><MEAN_MOTION>13.11415515</MEAN_MOTION><ECCENTRICITY>.0001529</ECCENTRICITY><INCLINATION>87.8976</INCLINATION><RA_OF_ASC_NODE>193.9529</RA_OF_ASC_NODE><ARG_OF_PERICENTER>87.1086</ARG_OF_PERICENTER><MEAN_ANOMALY>273.0217</MEAN_ANOMALY></meanElements><tleParameters><EPHEMERIS_TYPE>0</EPHEMERIS_TYPE><CLASSIFICATION_TYPE>U</CLASSIFICATION_TYPE><NORAD_CAT_ID>45155</NORAD_CAT_ID><ELEMENT_SET_NO>999</ELEMENT_SET_NO><REV_AT_EPOCH>19787</REV_AT_EPOCH><BSTAR>.97276E-3</BSTAR><MEAN_MOTION_DOT>.357E-5</MEAN_MOTION_DOT><MEAN_MOTION_DDOT>0</MEAN_MOTION_DDOT></tleParameters></data></segment></body></omm>
<omm id="CCSDS_OMM_VERS" version="2.0">
<header><CREATION_DATE/><ORIGINATOR/></header><body><segment><metadata><OBJECT_NAME>ONEWEB-0052</OBJECT_NAME><OBJECT_ID>2020-008AB</OBJECT_ID><CENTER_NAME>EARTH</CENTER_NAME><REF_FRAME>TEME</REF_FRAME><TIME_SYSTEM>UTC</TIME_SYSTEM><MEAN_ELEMENT_THEORY>SGP4</MEAN_ELEMENT_THEORY></metadata><data><meanElements><EPOCH>2024-01-29T12:08:35.185056</EPOCH><MEAN_MOTION>13.10370044</MEAN_MOTION><ECCENTRICITY>.0000972</ECCENTRICITY><INCLINATION>87.8899</INCLINATION><RA_OF_ASC_NODE>208.9897</RA_OF_ASC_NODE><ARG_OF_PERICENTER>112.3860</ARG_OF_PERICENTER><MEAN_ANOMALY>247.7371</MEAN_ANOMALY></meanElements><tleParameters><EPHEMERIS_TYPE>0</EPHEMERIS_TYPE><CLASSIFICATION_TYPE>U</CLASSIFICATION_TYPE><NORAD_CAT_ID>45156</NORAD_CAT_ID><ELEMENT_SET_NO>999</ELEMENT_SET_NO><REV_AT_EPOCH>19480</REV_AT_EPOCH><BSTAR>-.37044E-3</BSTAR><MEAN_MOTION_DOT>-.117E-5</MEAN_MOTION_DOT><MEAN_MOTION_DDOT>0</MEAN_MOTION_DDOT></tleParameters></data></segment></body></omm>
<omm id="CCSDS_OMM_VERS" version="2.0">
<header><CREATION_DATE/><ORIGINATOR/></header><body><segment><metadata><OBJECT_NAME>ONEWEB-0053</OBJECT_NAME><OBJECT_ID>2020-008AC</OBJECT_ID><CENTER_NAME>EARTH</CENTER_NAME><REF_FRAME>TEME</REF_FRAME><TIME_SYSTEM>UTC</TIME_SYSTEM><MEAN_ELEMENT_THEORY>SGP4</MEAN_ELEMENT_THEORY></metadata><data><meanElements><EPOCH>2024-01-28T21:03:14.781024</EPOCH><MEAN_MOTION>13.10371663</MEAN_MOTION><ECCENTRICITY>.0001364</ECCENTRICITY><INCLINATION>87.8901</INCLINATION><RA_OF_ASC_NODE>209.1633</RA_OF_ASC_NODE><ARG_OF_PERICENTER>98.5731</ARG_OF_PERICENTER><MEAN_ANOMALY>261.5551</MEAN_ANOMALY></meanElements><tleParameters><EPHEMERIS_TYPE>0</EPHEMERIS_TYPE><CLASSIFICATION_TYPE>U</CLASSIFICATION_TYPE><NORAD_CAT_ID>45157</NORAD_CAT_ID><ELEMENT_SET_NO>999</ELEMENT_SET_NO><REV_AT_EPOCH>19393</REV_AT_EPOCH><BSTAR>.13862E-2</BSTAR><MEAN_MOTION_DOT>.497E-5</MEAN_MOTION_DOT><MEAN_MOTION_DDOT>0</MEAN_MOTION_DDOT></tleParameters></data></segment></body></omm>
<omm id="CCSDS_OMM_VERS" version="2.0">
<header><CREATION_DATE/><ORIGINATOR/></header><body><segment><metadata><OBJECT_NAME>ONEWEB-0054</OBJECT_NAME><OBJECT_ID>2020-008AD</OBJECT_ID><CENTER_NAME>EARTH</CENTER_NAME><REF_FRAME>TEME</REF_FRAME><TIME_SYSTEM>UTC</TIME_SYSTEM><MEAN_ELEMENT_THEORY>SGP4</MEAN_ELEMENT_THEORY></metadata><data><meanElements><EPOCH>2024-01-28T23:44:37.267008</EPOCH><MEAN_MOTION>13.10373207</MEAN_MOTION><ECCENTRICITY>.000143</ECCENTRICITY><INCLINATION>87.8901</INCLINATION><RA_OF_ASC_NODE>209.1261</RA_OF_ASC_NODE><ARG_OF_PERICENTER>94.8626</ARG_OF_PERICENTER><MEAN_ANOMALY>265.2665</MEAN_ANOMALY></meanElements><tleParameters><EPHEMERIS_TYPE>0</EPHEMERIS_TYPE><CLASSIFICATION_TYPE>U</CLASSIFICATION_TYPE><NORAD_CAT_ID>45158</NORAD_CAT_ID><ELEMENT_SET_NO>999</ELEMENT_SET_NO><REV_AT_EPOCH>19482</REV_AT_EPOCH><BSTAR>-.16905E-2</BSTAR><MEAN_MOTION_DOT>-.577E-5</MEAN_MOTION_DOT><MEAN_MOTION_DDOT>0</MEAN_MOTION_DDOT></tleParameters></data></segment></body></omm>
<omm id="CCSDS_OMM_VERS" version="2.0">
<header><CREATION_DATE/><ORIGINATOR/></header><body><segment><metadata><OBJECT_NAME>ONEWEB-0056</OBJECT_NAME><OBJECT_ID>2020-008AE</OBJECT_ID><CENTER_NAME>EARTH</CENTER_NAME><REF_FRAME>TEME</REF_FRAME><TIME_SYSTEM>UTC</TIME_SYSTEM><MEAN_ELEMENT_THEORY>SGP4</MEAN_ELEMENT_THEORY></metadata><data><meanElements><EPOCH>2024-01-29T01:06:30.515328</EPOCH><MEAN_MOTION>13.10369234</MEAN_MOTION><ECCENTRICITY>.0001481</ECCENTRICITY><INCLINATION>87.8898</INCLINATION><RA_OF_ASC_NODE>209.1098</RA_OF_ASC_NODE><ARG_OF_PERICENTER>101.9762</ARG_OF_PERICENTER><MEAN_ANOMALY>258.1532</MEAN_ANOMALY></meanElements><tleParameters><EPHEMERIS_TYPE>0</EPHEMERIS_TYPE><CLASSIFICATION_TYPE>U</CLASSIFICATION_TYPE><NORAD_CAT_ID>45159</NORAD_CAT_ID><ELEMENT_SET_NO>999</ELEMENT_SET_NO><REV_AT_EPOCH>19498</REV_AT_EPOCH><BSTAR>-.54991E-3</BSTAR><MEAN_MOTION_DOT>-.179E-5</MEAN_MOTION_DOT><MEAN_MOTION_DDOT>0</MEAN_MOTION_DDOT></tleParameters></data></segment></body></omm>
<omm id="CCSDS_OMM_VERS" version="2.0">
<header><CREATION_DATE/><ORIGINATOR/></header><body><segment><metadata><OBJECT_NAME>ONEWEB-0057</OBJECT_NAME><OBJECT_ID>2020-008AF</OBJECT_ID><CENTER_NAME>EARTH</CENTER_NAME><REF_FRAME>TEME</REF_FRAME><TIME_SYSTEM>UTC</TIME_SYSTEM><MEAN_ELEMENT_THEORY>SGP4</MEAN_ELEMENT_THEORY></metadata><data><meanElements><EPOCH>2024-01-29T12:15:35.368128</EPOCH><MEAN_MOTION>13.10370026</MEAN_MOTION><ECCENTRICITY>.0001558</ECCENTRICITY><INCLINATION>87.8901</INCLINATION><RA_OF_ASC_NODE>209.0144</RA_OF_ASC_NODE><ARG_OF_PERICENTER>98.8537</ARG_OF_PERICENTER><MEAN_ANOMALY>261.2767</MEAN_ANOMALY></meanElements><tleParameters><EPHEMERIS_TYPE>0</EPHEMERIS_TYPE><CLASSIFICATION_TYPE>U</CLASSIFICATION_TYPE><NORAD_CAT_ID>45160</NORAD_CAT_ID><ELEMENT_SET_NO>999</ELEMENT_SET_NO><REV_AT_EPOCH>19494</REV_AT_EPOCH><BSTAR>-.11773E-2</BSTAR><MEAN_MOTION_DOT>-.398E-5</MEAN_MOTION_DOT><MEAN_MOTION_DDOT>0</MEAN_MOTION_DDOT></tleParameters></data></segment></body></omm>

</ndm>
